[{"OBJECT_NAME":"STARLINK-2661","OBJECT_ID":"2021-040AT","EPOCH":"2026-03-10T00:00:02.999808","MEAN_MOTION":15.25451954,"ECCENTRICITY":0.00013299,"INCLINATION":53.1375,"RA_OF_ASC_NODE":189.5495,"ARG_OF_PERICENTER":106.2776,"MEAN_ANOMALY":340.703,"EPHEMERIS_TYPE":0,"CLASSIFICATION_TYPE":"U","NORAD_CAT_ID":48469,"ELEMENT_SET_NO":999,"REV_AT_EPOCH":574,"BSTAR":0.058940308,"MEAN_MOTION_DOT":0.01671611,"MEAN_MOTION_DDOT":0},{"OBJECT_NAME":"PELICAN-3","OBJECT_ID":"2025-188A","EPOCH":"2026-03-09T17:46:03.866592","MEAN_MOTION":15.40576292,"ECCENTRICITY":0.0002659,"INCLINATION":97.225,"RA_OF_ASC_NODE":146.2851,"ARG_OF_PERICENTER":172.9618,"MEAN_ANOMALY":187.1666,"EPHEMERIS_TYPE":0,"CLASSIFICATION_TYPE":"U","NORAD_CAT_ID":65315,"ELEMENT_SET_NO":999,"REV_AT_EPOCH":3000,"BSTAR":0.0012532881,"MEAN_MOTION_DOT":0.00051154,"MEAN_MOTION_DDOT":0}]
